[{"OBJECT_NAME":"OBJECT F","OBJECT_ID":"2023-072F","EPOCH":"2026-03-09T23:31:37.259904","MEAN_MOTION":15.29470958,"ECCENTRICITY":0.00062878,"INCLINATION":97.5173,"RA_OF_ASC_NODE":265.798,"ARG_OF_PERICENTER":19.0017,"MEAN_ANOMALY":341.1456,"EPHEMERIS_TYPE":0,"CLASSIFICATION_TYPE":"U","NORAD_CAT_ID":56748,"ELEMENT_SET_NO":999,"REV_AT_EPOCH":15460,"BSTAR":0.00043416252,"MEAN_MOTION_DOT":0.00012341,"MEAN_MOTION_DDOT":0},{"OBJECT_NAME":"STARLINK-31089","OBJECT_ID":"2023-200X","EPOCH":"2026-03-09T07:33:09.471744","MEAN_MOTION":15.26736652,"ECCENTRICITY":0.00011772,"INCLINATION":43.0021,"RA_OF_ASC_NODE":170.8996,"ARG_OF_PERICENTER":274.4243,"MEAN_ANOMALY":85.6473,"EPHEMERIS_TYPE":0,"CLASSIFICATION_TYPE":"U","NORAD_CAT_ID":58610,"ELEMENT_SET_NO":999,"REV_AT_EPOCH":12355,"BSTAR":2.9279419e-5,"MEAN_MOTION_DOT":5.26e-6,"MEAN_MOTION_DDOT":0}]
